[{"leisure": "park", "name": "Weerstandsplein", "coordinate": {"latitude": 51.0550692, "longitude": 3.6934569}}, {"leisure": "park", "name": "Adolf Papeleupark", "name:etymology:wikidata": "Q94555061", "coordinate": {"latitude": 51.0312025, "longitude": 3.7481316}}, {"leisure": "park", "name": "Muinkpark", "coordinate": {"latitude": 51.0429312, "longitude": 3.7300691}}, {"leisure": "park", "name": "Willem De Beer park", "name:etymology:wikidata": "Q99912733", "coordinate": {"latitude": 51.0605604, "longitude": 3.726731}}, {"leisure": "park", "name": "Rommelwaterpark", "wikidata": "Q2606490", "coordinate": {"latitude": 51.0513388, "longitude": 3.7397865}}, {"alt_name": "Baudelopark", "description": "wijkpark", "leisure": "park", "name": "Baudelohof", "coordinate": {"latitude": 51.0577141, "longitude": 3.7291407}}, {"description": "Naam bevestigd door wegspotter", "leisure": "park", "name": "Zondernaampark", "wikidata": "Q33100185", "coordinate": {"latitude": 51.0588767, "longitude": 3.7347705}}, {"description": "https://stad.gent/sites/default/files/page/documents/20170208_16_01558_Plan%20Blaarmeersen%20aanpassen_A3_LR.pdf", "leisure": "park", "name": "Blaarmeersen", "website": "https://stad.gent/blaarmeersen", "wikidata": "Q2905240", "wikipedia": "nl:Blaarmeersen", "coordinate": {"latitude": 51.0422279, "longitude": 3.6802615}}, {"leisure": "park", "name": "Paul de Smet de Naeyerpark", "name:etymology:wikidata": "Q721781", "coordinate": {"latitude": 51.0321991, "longitude": 3.7149645}}, {"leisure": "park", "name": "Azaleapark", "coordinate": {"latitude": 51.061083, "longitude": 3.7494329}}, {"landuse": "village_green", "leisure": "park", "name": "Fluweelpark", "coordinate": {"latitude": 51.0697112, "longitude": 3.6929088}}, {"leisure": "park", "name": "Wielewaalpark", "website": "https://duckduckgo.com/?t=canonical&q=wielewaalpark&ia=web", "coordinate": {"latitude": 51.0666186, "longitude": 3.6959652}}, {"landuse": "village_green", "leisure": "park", "name": "Begijnhofdriespark", "coordinate": {"latitude": 51.057361, "longitude": 3.7119367}}, {"leisure": "park", "name": "Coyendanspark", "website": "https://stad.gent/cultuur-sport-vrije-tijd/buiten-genieten/coyendanspark", "wikidata": "Q33100616", "coordinate": {"latitude": 51.0535493, "longitude": 3.7366119}}, {"image": "https://i.imgur.com/pckmQHM.jpg", "leisure": "park", "name": "Ekkergempark", "website": "https://stad.gent/nl/buitenlocaties/ekkergempark", "coordinate": {"latitude": 51.0506684, "longitude": 3.7042041}}, {"leisure": "park", "name": "Banierpark", "wikidata": "Q108746716", "coordinate": {"latitude": 51.0532372, "longitude": 3.7455533}}, {"alt_name": "Malmarpark", "historic": "industrial", "leisure": "park", "name": "Bijgaardepark", "old_name": "Malmar", "wikidata": "Q108746718", "coordinate": {"latitude": 51.0493706, "longitude": 3.7441059}}, {"leisure": "park", "name": "Speelterrein wasstraat", "coordinate": {"latitude": 51.0561902, "longitude": 3.7444781}}, {"leisure": "park", "name": "Veergrep", "coordinate": {"latitude": 51.043941, "longitude": 3.7212513}}, {"leisure": "park", "name": "Acaciapark", "coordinate": {"latitude": 51.0607747, "longitude": 3.6983536}}, {"leisure": "park", "name": "Kokerpark", "coordinate": {"latitude": 51.0581102, "longitude": 3.6988203}}, {"leisure": "park", "name": "Bloemekenspark", "coordinate": {"latitude": 51.0663989, "longitude": 3.7122132}}, {"leisure": "park", "name": "Appelbrugparkje", "coordinate": {"latitude": 51.0558918, "longitude": 3.7202695}}, {"leisure": "park", "name": "De Bijloke", "coordinate": {"latitude": 51.0442789, "longitude": 3.7185506}}, {"leisure": "park", "name": "Robert Hoozeepark", "coordinate": {"latitude": 51.0384656, "longitude": 3.7238648}}, {"leisure": "park", "name": "Citadelpark", "wikidata": "Q4464341", "wikipedia": "nl:Citadelpark", "coordinate": {"latitude": 51.0382661, "longitude": 3.7192659}}, {"leisure": "park", "name": "Keizerpark", "wikidata": "Q2250970", "coordinate": {"latitude": 51.04163, "longitude": 3.7409675}}, {"leisure": "park", "name": "Maaseikplein", "old_name": "Geraard De Duivelhof", "coordinate": {"latitude": 51.0522864, "longitude": 3.7277979}}, {"leisure": "park", "name": "Bellevuepark", "coordinate": {"latitude": 51.0341582, "longitude": 3.7346227}}, {"leisure": "park", "name": "Andr\u00e9 De Smulpark", "coordinate": {"latitude": 51.0385053, "longitude": 3.7379485}}, {"leisure": "park", "name": "Koningin Astridpark", "name:etymology:wikidata": "Q230238", "wikidata": "Q2636617", "coordinate": {"latitude": 51.0508781, "longitude": 3.7377703}}, {"leisure": "park", "name": "Puzzelpark", "coordinate": {"latitude": 51.0468777, "longitude": 3.7422018}}, {"leisure": "park", "name": "Rozanetuin", "coordinate": {"latitude": 51.0594052, "longitude": 3.7169368}}, {"leisure": "park", "name": "Arbedpark", "coordinate": {"latitude": 51.0466693, "longitude": 3.7506893}}, {"alt_name": "Park Halfweg", "leisure": "park", "name": "Halfwegpark", "coordinate": {"latitude": 51.0545056, "longitude": 3.6846509}}, {"leisure": "park", "name": "Park De Vijvers", "coordinate": {"latitude": 51.0332441, "longitude": 3.7474181}}, {"leisure": "park", "name": "Rabotpark", "coordinate": {"latitude": 51.0657297, "longitude": 3.715336}}, {"leisure": "park", "name": "Adolf Papeleupark", "name:etymology:wikidata": "Q94555061", "coordinate": {"latitude": 51.0308436, "longitude": 3.7485823}}, {"leisure": "park", "name": "Pierkespark", "coordinate": {"latitude": 51.0588926, "longitude": 3.7017615}}, {"leisure": "park", "name": "Tolhuispark", "coordinate": {"latitude": 51.0641947, "longitude": 3.7250841}}, {"leisure": "park", "name": "Visserijpark", "coordinate": {"latitude": 51.043937, "longitude": 3.7392578}}, {"leisure": "park", "name": "Natuurpark Overmeers", "coordinate": {"latitude": 51.0349811, "longitude": 3.7006983}}, {"leisure": "park", "name": "Wolterspark", "coordinate": {"latitude": 51.0493887, "longitude": 3.7458898}}, {"leisure": "park", "name": "Buurtpark Duifhuisstraat", "coordinate": {"latitude": 51.041557, "longitude": 3.7022889}}, {"leisure": "park", "name": "Olympiadepark", "coordinate": {"latitude": 51.0416057, "longitude": 3.7006048}}, {"leisure": "park", "name": "Vogelenzangpark", "coordinate": {"latitude": 51.0649607, "longitude": 3.7220411}}, {"leisure": "park", "name": "Luizengevecht", "coordinate": {"latitude": 51.060366, "longitude": 3.7032186}}, {"leisure": "park", "name": "Boerderijpark", "coordinate": {"latitude": 51.059277, "longitude": 3.6964354}}, {"leisure": "park", "name": "Frans Tochpark", "name:etymology:wikidata": "Q18433424", "coordinate": {"latitude": 51.0375689, "longitude": 3.7632169}}, {"leisure": "park", "name": "Groenzone Tuinwijk Malem", "coordinate": {"latitude": 51.0511938, "longitude": 3.6964354}}, {"leisure": "park", "name": "Park de P\u00e9lichy", "coordinate": {"latitude": 51.037913, "longitude": 3.7544793}}, {"leisure": "park", "name": "Malpertuuspark", "coordinate": {"latitude": 51.0640921, "longitude": 3.687484}}, {"leisure": "park", "name": "Sint-Baafskouter", "coordinate": {"latitude": 51.0553835, "longitude": 3.7615376}}, {"leisure": "park", "name": "Park Potuit", "coordinate": {"latitude": 51.0652749, "longitude": 3.7538694}}, {"leisure": "park", "name": "Coupurepark", "coordinate": {"latitude": 51.0532185, "longitude": 3.7111408}}, {"leisure": "park", "name": "Victoria Regiapark", "name:etymology:wikidata": "Q33130427", "coordinate": {"latitude": 51.0419073, "longitude": 3.7486114}}, {"leisure": "park", "name": "Lousbergspark", "coordinate": {"latitude": 51.0458022, "longitude": 3.7418172}}, {"leisure": "park", "name": "Van Crombrugghepark", "coordinate": {"latitude": 51.0664734, "longitude": 3.7292186}}, {"leisure": "park", "name": "Standaertsite", "note": "For plans, see https://stad.gent/ledeberg-leeft/de-deelprojecten-van-ledeberg-leeft/naar-een-nieuwe-invulling-voor-de-standaertsite", "start_date": "2018-09-28", "website": "http://standaertsite.be", "coordinate": {"latitude": 51.037565, "longitude": 3.7452538}}, {"leaf_cycle": "deciduous", "leaf_type": "broadleaved", "leisure": "park", "name": "Guido Moonspark", "name:etymology:wikidata": "Q15875948", "coordinate": {"latitude": 51.0339612, "longitude": 3.7063475}}, {"dogs": "leashed", "leisure": "park", "name": "Reigerspark", "old_name": "Peerdekerkhof", "opening_hours": "sunrise-sunset", "coordinate": {"latitude": 51.0336175, "longitude": 3.7106907}}, {"leisure": "park", "name": "Sassevaartpark", "coordinate": {"latitude": 51.0671483, "longitude": 3.7315483}}, {"leisure": "park", "name": "Cotton Island", "coordinate": {"latitude": 51.0401182, "longitude": 3.7403152}}, {"leisure": "park", "name": "Robert Hoozeepark", "coordinate": {"latitude": 51.0372948, "longitude": 3.7233688}}, {"leisure": "park", "name": "Robert Hoozeepark", "coordinate": {"latitude": 51.0377586, "longitude": 3.7232709}}, {"alt_name": "Zuidpark", "leisure": "park", "name": "Koning Albertpark", "wikidata": "Q12012980", "coordinate": {"latitude": 51.0438913, "longitude": 3.733568}}, {"access": "yes", "leisure": "park", "name": "Daskalid\u00e8spark", "name:etymology": "Genoemd naar de voormalige pralinefabriek die hier stond", "name:etymology:wikidata": "Q2670878", "note": "Hoewel dit er priv\u00e9 uitziet, is het publiek toegankelijk. Er staan g\u00e9\u00e9n verbodsborden; daarnaast is dit een belangrijke groene doorsteek. Wss was dit zelfs deel van de projectovereenkomst met stad Gent", "website": "https://www.bontinck.biz/en/projects/jean-daskalides/", "coordinate": {"latitude": 51.0515092, "longitude": 3.6991457}}, {"construction": "park", "leisure": "park", "name": "Zuiderpoortpark", "coordinate": {"latitude": 51.0361266, "longitude": 3.7337756}}, {"leisure": "park", "name": "Acht Mei Plein", "note": "offici\u00eble naam bevat inderdaad een schrijffout", "coordinate": {"latitude": 51.0433852, "longitude": 3.7327287}}, {"fixme": "draw area", "leisure": "park", "name": "Hof Ten Walle", "coordinate": {"latitude": 51.0590301, "longitude": 3.7144009}}, {"leisure": "park", "name": "Park Rozebroeken", "coordinate": {"latitude": 51.0607635, "longitude": 3.7625779}}, {"historic": "industrial", "leisure": "park", "name": "Groenevalleipark", "old_name": "La Lys", "coordinate": {"latitude": 51.0535763, "longitude": 3.701848}}, {"layer": "1", "leisure": "park", "level": "1", "name": "Daktuin Tribeca", "note": "This is a rooftop park; it is literally named 'Daktuin Tribeca'. As it is a green area which is publicly accessible, I classified this as a park.", "website": "http://www.canopy-greenroofs.be/blogPost/daktuin-tribeca-gent", "coordinate": {"latitude": 51.0666384, "longitude": 3.7090967}}, {"leisure": "park", "name": "Park De Meubelfabriek", "old_name": "Bowling Meibloem", "coordinate": {"latitude": 51.0590575, "longitude": 3.6988567}}, {"leisure": "park", "name": "Park Meierij", "coordinate": {"latitude": 51.0316286, "longitude": 3.7355035}}, {"leisure": "park", "name": "Herman Pillaertpark", "coordinate": {"latitude": 51.066907, "longitude": 3.7214045}}, {"addr:postcode": "9050", "addr:street": "Eindeke", "leisure": "park", "name": "Eindeke", "opening_hours": "24/7", "opening_hours:covid19": "24/7", "coordinate": {"latitude": 51.0287946, "longitude": 3.7467837}}, {"leisure": "park", "name": "Edith Devriendtpark", "coordinate": {"latitude": 51.0386961, "longitude": 3.7027673}}]